NORAD_CAT_ID,OBJECT_NAME,OBJECT_TYPE,EPOCH,MEAN_MOTION,ECCENTRICITY,INCLINATION,RA_OF_ASC_NODE,ARG_OF_PERICENTER,MEAN_ANOMALY,BSTAR,MEAN_MOTION_DOT,MEAN_MOTION_DDOT,TLE_LINE0,TLE_LINE1,TLE_LINE2,SEMIMAJOR_AXIS,PERIOD,APOGEE,PERIGEE,DECAYED
53555.0,STARLINK-4504,PAYLOAD,2023-11-27 20:00:27,15.08832107,0.0001378,53.2148,202.9562,107.6279,252.4864,0.00031682,4.757e-05,0.0,0 STARLINK-4504,1 53555U 22101AE  23331.83365194  .00004757  00000-0  31682-3 0  9996,2 53555  53.2148 202.9562 0001378 107.6279 252.4864 15.08832107 70570,6917.905,95.438,540.723,538.816,0.0
53555.0,STARLINK-4504,PAYLOAD,2023-11-27 21:35:50,15.08849189,0.000136,53.2147,202.6578,136.13,223.98,0.0010183,0.00015959,0.0,0 STARLINK-4504,1 53555U 22101AE  23331.89988596  .00015959  00000-0  10183-2 0  9997,2 53555  53.2147 202.6578 0001360 136.1300 223.9800 15.08849189 71242,6917.852,95.437,540.658,538.776,0.0
53555.0,STARLINK-4504,PAYLOAD,2023-11-27 23:11:13,15.08842141,0.0001327,53.2143,202.3624,115.5137,244.5992,0.00070858,0.00011008,0.0,0 STARLINK-4504,1 53555U 22101AE  23331.96613147  .00011008  00000-0  70858-3 0  9999,2 53555  53.2143 202.3624 0001327 115.5137 244.5992 15.08842141 70598,6917.874,95.437,540.657,538.821,0.0
53555.0,STARLINK-4504,PAYLOAD,2023-11-28 19:51:14,15.08845703,0.0001396,53.2135,198.5033,134.2451,225.8656,0.00051979,7.995e-05,0.0,0 STARLINK-4504,1 53555U 22101AE  23332.82725004  .00007995  00000-0  51979-3 0  9994,2 53555  53.2135 198.5033 0001396 134.2451 225.8656 15.08845703 70723,6917.863,95.437,540.694,538.762,0.0
53555.0,STARLINK-4504,PAYLOAD,2023-11-28 21:26:37,15.08849601,0.0001306,53.214,198.2069,123.3288,236.7829,0.00055404,8.543e-05,0.0,0 STARLINK-4504,1 53555U 22101AE  23332.89348989  .00008543  00000-0  55404-3 0  9991,2 53555  53.2140 198.2069 0001306 123.3288 236.7829 15.08849601 71391,6917.851,95.437,540.62,538.813,0.0
53555.0,STARLINK-4504,PAYLOAD,2023-11-29 19:42:01,15.08849774,0.0001408,53.2134,194.0442,143.165,216.9439,0.00045737,7.001e-05,0.0,0 STARLINK-4504,1 53555U 22101AE  23333.82084969  .00007001  00000-0  45737-3 0  9996,2 53555  53.2134 194.0442 0001408 143.1650 216.9439 15.08849774 70879,6917.851,95.437,540.69,538.741,0.0
53555.0,STARLINK-4504,PAYLOAD,2023-11-30 19:32:48,15.08840518,0.0001322,53.2148,189.568,100.5471,259.567,0.00038804,5.893e-05,0.0,0 STARLINK-4504,1 53555U 22101AE  23334.81445381  .00005893  00000-0  38804-3 0  9999,2 53555  53.2148 189.5680 0001322 100.5471 259.5670 15.08840518 71025,6917.879,95.438,540.658,538.829,0.0
53555.0,STARLINK-4504,PAYLOAD,2023-12-01 20:58:58,15.08855269,0.0001494,53.2148,184.816,100.6552,259.4608,0.00048711,7.476e-05,0.0,0 STARLINK-4504,1 53555U 22101AE  23335.87429176  .00007476  00000-0  48711-3 0  9997,2 53555  53.2148 184.8160 0001494 100.6552 259.4608 15.08855269 71846,6917.834,95.437,540.732,538.665,0.0
53555.0,STARLINK-4504,PAYLOAD,2023-12-02 00:09:45,15.08857472,0.0001565,53.2148,184.2211,102.0039,258.1128,0.0006287,9.737e-05,0.0,0 STARLINK-4504,1 53555U 22101AE  23336.00677132  .00009737  00000-0  62870-3 0  9994,2 53555  53.2148 184.2211 0001565 102.0039 258.1128 15.08857472 71203,6917.827,95.436,540.775,538.609,0.0
53555.0,STARLINK-4504,PAYLOAD,2023-12-02 19:14:22,15.08844824,0.0001464,53.2148,180.6527,108.9294,251.1857,0.00014497,2.02e-05,0.0,0 STARLINK-4504,1 53555U 22101AE  23336.80165304  .00002020  00000-0  14497-3 0  9995,2 53555  53.2148 180.6527 0001464 108.9294 251.1857 15.08844824 71321,6917.866,95.437,540.743,538.718,0.0
53555.0,STARLINK-4504,PAYLOAD,2023-12-02 20:49:45,15.08843516,0.0001487,53.2148,180.3552,113.5681,246.5467,7.9018e-05,9.7e-06,0.0,0 STARLINK-4504,1 53555U 22101AE  23336.86789270  .00000970  00000-0  79018-4 0  9998,2 53555  53.2148 180.3552 0001487 113.5681 246.5467 15.08843516 71998,6917.87,95.437,540.763,538.706,0.0
53555.0,STARLINK-4504,PAYLOAD,2023-12-03 00:00:32,15.08841338,0.0001423,53.215,179.7612,99.953,260.1623,5.3538e-05,5.64e-06,0.0,0 STARLINK-4504,1 53555U 22101AE  23337.00037353  .00000564  00000-0  53538-4 0  9991,2 53555  53.2150 179.7612 0001423  99.9530 260.1623 15.08841338 72010,6917.876,95.437,540.726,538.757,0.0
53555.0,STARLINK-4504,PAYLOAD,2023-12-03 19:05:10,15.08831914,0.0001517,53.2147,176.1916,114.2896,245.8255,-0.00013707,-2.468e-05,0.0,0 STARLINK-4504,1 53555U 22101AE  23337.79525992 -.00002468  00000-0 -13707-3 0  9998,2 53555  53.2147 176.1916 0001517 114.2896 245.8255 15.08831914 71473,6917.905,95.438,540.82,538.721,0.0
53555.0,STARLINK-4504,PAYLOAD,2023-12-04 10:59:02,15.088289,0.0001503,53.2149,173.2179,111.0288,249.0865,2.7431e-05,1.49e-06,0.0,0 STARLINK-4504,1 53555U 22101AE  23338.45766637  .00000149  00000-0  27431-4 0  9997,2 53555  53.2149 173.2179 0001503 111.0288 249.0865 15.08828900 72238,6917.914,95.438,540.819,538.74,0.0
53555.0,STARLINK-4504,PAYLOAD,2023-12-04 22:06:44,15.08832479,0.0001526,53.215,171.1362,112.5219,247.5935,9.651e-05,1.248e-05,0.0,0 STARLINK-4504,1 53555U 22101AE  23338.92134839  .00001248  00000-0  96510-4 0  9997,2 53555  53.2150 171.1362 0001526 112.5219 247.5935 15.08832479 72301,6917.903,95.438,540.824,538.713,0.0
53555.0,STARLINK-4504,PAYLOAD,2023-12-05 12:25:12,15.08835736,0.0001411,53.2154,168.462,98.4857,261.6295,0.00018529,2.662e-05,0.0,0 STARLINK-4504,1 53555U 22101AE  23339.51751096  .00002662  00000-0  18529-3 0  9997,2 53555  53.2154 168.4620 0001411  98.4857 261.6295 15.08835736 72398,6917.893,95.438,540.735,538.782,0.0
53555.0,STARLINK-4504,PAYLOAD,2023-12-06 12:15:59,15.08847153,0.0001418,53.215,164.0,106.3239,253.7909,0.00023779,3.499e-05,0.0,0 STARLINK-4504,1 53555U 22101AE  23340.51110541  .00003499  00000-0  23779-3 0  9995,2 53555  53.2150 164.0000 0001418 106.3239 253.7909 15.08847153 71881,6917.859,95.437,540.704,538.743,0.0
53555.0,STARLINK-4504,PAYLOAD,2023-12-06 21:48:17,15.08852338,0.0001432,53.2149,162.2155,111.1343,248.9802,0.00026946,4.005e-05,0.0,0 STARLINK-4504,1 53555U 22101AE  23340.90854078  .00004005  00000-0  26946-3 0  9991,2 53555  53.2149 162.2155 0001432 111.1343 248.9802 15.08852338 72606,6917.843,95.437,540.698,538.717,0.0
53555.0,STARLINK-4504,PAYLOAD,2023-12-07 12:06:46,15.08842767,0.0001444,53.2144,159.54,107.201,252.914,6.7386e-05,7.85e-06,0.0,0 STARLINK-4504,1 53555U 22101AE  23341.50470340  .00000785  00000-0  67386-4 0  9999,2 53555  53.2144 159.5400 0001444 107.2010 252.9140 15.08842767 72035,6917.872,95.437,540.736,538.738,0.0
53555.0,STARLINK-4504,PAYLOAD,2023-12-08 11:57:32,15.08845414,0.0001517,53.2147,155.0801,114.3726,245.7425,5.1935e-05,5.39e-06,0.0,0 STARLINK-4504,1 53555U 22101AE  23342.49829828  .00000539  00000-0  51935-4 0  9997,2 53555  53.2147 155.0801 0001517 114.3726 245.7425 15.08845414 72845,6917.864,95.437,540.778,538.679,0.0
53555.0,STARLINK-4504,PAYLOAD,2023-12-08 21:29:51,15.08843055,0.0001869,53.2121,153.296,95.2032,264.9173,2.6899e-05,1.4e-06,0.0,0 STARLINK-4504,1 53555U 22101AE  23342.89573936  .00000140  00000-0  26899-4 0  9996,2 53555  53.2121 153.2960 0001869  95.2032 264.9173 15.08843055 72909,6917.871,95.437,541.029,538.443,0.0
53555.0,STARLINK-4504,PAYLOAD,2023-12-09 11:48:20,15.08842862,0.0001485,53.2157,150.6214,92.3518,267.7645,4.2484e-05,3.88e-06,0.0,0 STARLINK-4504,1 53555U 22101AE  23343.49189972  .00000388  00000-0  42484-4 0  9998,2 53555  53.2157 150.6214 0001485  92.3518 267.7645 15.08842862 72991,6917.872,95.437,540.764,538.709,0.0
53555.0,STARLINK-4504,PAYLOAD,2023-12-10 11:39:06,15.0884161,0.000169,53.2137,146.1588,101.9528,258.1654,3.4031e-06,-2.34e-06,0.0,0 STARLINK-4504,1 53555U 22101AE  23344.48549748 -.00000234  00000-0  34031-5 0  9990,2 53555  53.2137 146.1588 0001690 101.9528 258.1654 15.08841610 72487,6917.875,95.437,540.91,538.571,0.0
53555.0,STARLINK-4504,PAYLOAD,2023-12-10 14:49:53,15.08841743,0.000151,53.2159,145.5617,110.5337,249.5817,4.7756e-05,4.72e-06,0.0,0 STARLINK-4504,1 53555U 22101AE  23344.61797718  .00000472  00000-0  47756-4 0  9997,2 53555  53.2159 145.5617 0001510 110.5337 249.5817 15.08841743 73160,6917.875,95.437,540.785,538.695,0.0
53555.0,STARLINK-4504,PAYLOAD,2023-12-10 18:00:39,15.08841117,0.0001281,53.2163,144.9678,99.8237,260.2899,1.8769e-05,1.1e-07,0.0,0 STARLINK-4504,1 53555U 22101AE  23344.75045837  .00000011  00000-0  18769-4 0  9991,2 53555  53.2163 144.9678 0001281  99.8237 260.2899 15.08841117 73185,6917.877,95.437,540.628,538.856,0.0
53555.0,STARLINK-4504,PAYLOAD,2023-12-11 14:40:40,15.08836497,0.0001241,53.2166,141.1066,96.9329,263.1804,4.7467e-05,4.68e-06,0.0,0 STARLINK-4504,1 53555U 22101AE  23345.61158193  .00000468  00000-0  47467-4 0  9990,2 53555  53.2166 141.1066 0001241  96.9329 263.1804 15.08836497 73312,6917.891,95.438,540.615,538.898,0.0
53555.0,STARLINK-4504,PAYLOAD,2023-12-11 17:51:26,15.08837567,0.0001207,53.2162,140.5106,91.8133,268.2997,5.2456e-05,5.47e-06,0.0,0 STARLINK-4504,1 53555U 22101AE  23345.74406135  .00000547  00000-0  52456-4 0  9998,2 53555  53.2162 140.5106 0001207  91.8133 268.2997 15.08837567 72671,6917.888,95.438,540.588,538.918,0.0
53555.0,STARLINK-4504,PAYLOAD,2023-12-12 17:42:13,15.08840413,0.0001231,53.2163,136.0495,85.4317,274.6816,7.0529e-05,8.35e-06,0.0,0 STARLINK-4504,1 53555U 22101AE  23346.73766082  .00000835  00000-0  70529-4 0  9999,2 53555  53.2163 136.0495 0001231  85.4317 274.6816 15.08840413 73488,6917.879,95.438,540.596,538.893,0.0
53555.0,STARLINK-4504,PAYLOAD,2023-12-13 14:22:14,15.08840744,0.0001296,53.2166,132.1811,77.709,282.4047,7.7006e-05,9.38e-06,0.0,0 STARLINK-4504,1 53555U 22101AE  23347.59878102  .00000938  00000-0  77006-4 0  9992,2 53555  53.2166 132.1811 0001296  77.7090 282.4047 15.08840744 73618,6917.878,95.438,540.64,538.847,0.0
53555.0,STARLINK-4504,PAYLOAD,2023-12-13 17:33:00,15.08842969,0.0001357,53.2166,131.588,73.75,286.3641,9.7809e-05,1.269e-05,0.0,0 STARLINK-4504,1 53555U 22101AE  23347.73125954  .00001269  00000-0  97809-4 0  9999,2 53555  53.2166 131.5880 0001357  73.7500 286.3641 15.08842969 72979,6917.871,95.437,540.675,538.798,0.0
